{
  "type": "FeatureCollection",
  "features": [
    {
      "type": "Feature",
      "properties": {
        "norad_id": 56564,
        "name": "BEIDOU-3 G4 (C62)",
        "group": "gnss",
        "lat": 0.8288383940427692,
        "lon": 19.048940268667653,
        "alt_km": 35798.79156736432,
        "timestamp": "2025-12-06T09:34:17.157902+00:00",
        "meta_object_name": "BEIDOU-3 G4 (C62)",
        "meta_object_id": "2023-066A",
        "meta_epoch": "2025-12-05T21:18:21.305376",
        "meta_mean_motion": 1.00270929,
        "meta_eccentricity": 0.00032035,
        "meta_inclination": 0.8305,
        "meta_ra_of_asc_node": 301.476,
        "meta_arg_of_pericenter": 236.6642,
        "meta_mean_anomaly": 16.4531,
        "meta_ephemeris_type": 0,
        "meta_classification_type": "U",
        "meta_norad_cat_id": 56564,
        "meta_element_set_no": 999,
        "meta_rev_at_epoch": 945,
        "meta_bstar": 0,
        "meta_mean_motion_dot": -1.01e-06,
        "meta_mean_motion_ddot": 0,
        "tle_line1": "1 56564U 23066A   25339.88774659 -.00000101  00000+0  00000+0 0  9990",
        "tle_line2": "2 56564   0.8305 301.4760 0003203 236.6642  16.4531  1.00270929  9450"
      },
      "geometry": {
        "type": "Point",
        "coordinates": [
          19.048940268667653,
          0.8288383940427692
        ]
      }
    },
    {
      "type": "Feature",
      "properties": {
        "norad_id": 56759,
        "name": "NVS-01 (IRNSS-1J)",
        "group": "gnss",
        "lat": 2.6259479809629074,
        "lon": -11.405055660884928,
        "alt_km": 35787.09030507556,
        "timestamp": "2025-12-06T09:34:17.157913+00:00",
        "meta_object_name": "NVS-01 (IRNSS-1J)",
        "meta_object_id": "2023-076A",
        "meta_epoch": "2025-12-05T21:09:37.140768",
        "meta_mean_motion": 1.00266054,
        "meta_eccentricity": 0.00087122,
        "meta_inclination": 2.6361,
        "meta_ra_of_asc_node": 251.8516,
        "meta_arg_of_pericenter": 7.2306,
        "meta_mean_anomaly": 262.758,
        "meta_ephemeris_type": 0,
        "meta_classification_type": "U",
        "meta_norad_cat_id": 56759,
        "meta_element_set_no": 999,
        "meta_rev_at_epoch": 917,
        "meta_bstar": 0,
        "meta_mean_motion_dot": -3.25e-06,
        "meta_mean_motion_ddot": 0,
        "tle_line1": "1 56759U 23076A   25339.88167987 -.00000325  00000+0  00000+0 0  9995",
        "tle_line2": "2 56759   2.6361 251.8516 0008712   7.2306 262.7580  1.00266054  9177"
      },
      "geometry": {
        "type": "Point",
        "coordinates": [
          -11.405055660884928,
          2.6259479809629074
        ]
      }
    },
    {
      "type": "Feature",
      "properties": {
        "norad_id": 57517,
        "name": "COSMOS 2569 (703K)",
        "group": "gnss",
        "lat": 6.962748540244054,
        "lon": 82.36582081649895,
        "alt_km": 19125.213373107465,
        "timestamp": "2025-12-06T09:34:17.157927+00:00",
        "meta_object_name": "COSMOS 2569 (703K)",
        "meta_object_id": "2023-114A",
        "meta_epoch": "2025-12-01T16:42:34.469856",
        "meta_mean_motion": 2.13103822,
        "meta_eccentricity": 0.0010109,
        "meta_inclination": 65.1883,
        "meta_ra_of_asc_node": 79.2867,
        "meta_arg_of_pericenter": 287.0179,
        "meta_mean_anomaly": 72.8703,
        "meta_ephemeris_type": 0,
        "meta_classification_type": "U",
        "meta_norad_cat_id": 57517,
        "meta_element_set_no": 999,
        "meta_rev_at_epoch": 1805,
        "meta_bstar": 0,
        "meta_mean_motion_dot": -1.6e-07,
        "meta_mean_motion_ddot": 0,
        "tle_line1": "1 57517U 23114A   25335.69623229 -.00000016  00000+0  00000+0 0  9999",
        "tle_line2": "2 57517  65.1883  79.2867 0010109 287.0179  72.8703  2.13103822 18055"
      },
      "geometry": {
        "type": "Point",
        "coordinates": [
          82.36582081649895,
          6.962748540244054
        ]
      }
    },
    {
      "type": "Feature",
      "properties": {
        "norad_id": 58654,
        "name": "BEIDOU-3 M28 (C50)",
        "group": "gnss",
        "lat": -55.589844100264635,
        "lon": -19.34461351247559,
        "alt_km": 21528.492747200016,
        "timestamp": "2025-12-06T09:34:17.157938+00:00",
        "meta_object_name": "BEIDOU-3 M28 (C50)",
        "meta_object_id": "2023-207A",
        "meta_epoch": "2025-12-03T07:26:02.398272",
        "meta_mean_motion": 1.86229561,
        "meta_eccentricity": 0.00020314,
        "meta_inclination": 55.5764,
        "meta_ra_of_asc_node": 68.9209,
        "meta_arg_of_pericenter": 265.1091,
        "meta_mean_anomaly": 94.871,
        "meta_ephemeris_type": 0,
        "meta_classification_type": "U",
        "meta_norad_cat_id": 58654,
        "meta_element_set_no": 999,
        "meta_rev_at_epoch": 1319,
        "meta_bstar": 0,
        "meta_mean_motion_dot": -5.1e-07,
        "meta_mean_motion_ddot": 0,
        "tle_line1": "1 58654U 23207A   25337.30974998 -.00000051  00000+0  00000+0 0  9996",
        "tle_line2": "2 58654  55.5764  68.9209 0002031 265.1091  94.8710  1.86229561 13199"
      },
      "geometry": {
        "type": "Point",
        "coordinates": [
          -19.34461351247559,
          -55.589844100264635
        ]
      }
    },
    {
      "type": "Feature",
      "properties": {
        "norad_id": 58655,
        "name": "BEIDOU-3 M26 (C48)",
        "group": "gnss",
        "lat": 36.87573486007939,
        "lon": 99.71020961072782,
        "alt_km": 21532.392900325372,
        "timestamp": "2025-12-06T09:34:17.157949+00:00",
        "meta_object_name": "BEIDOU-3 M26 (C48)",
        "meta_object_id": "2023-207B",
        "meta_epoch": "2025-12-03T02:34:45.227424",
        "meta_mean_motion": 1.86231091,
        "meta_eccentricity": 0.00034591,
        "meta_inclination": 55.5782,
        "meta_ra_of_asc_node": 68.9139,
        "meta_arg_of_pericenter": 250.5367,
        "meta_mean_anomaly": 109.429,
        "meta_ephemeris_type": 0,
        "meta_classification_type": "U",
        "meta_norad_cat_id": 58655,
        "meta_element_set_no": 999,
        "meta_rev_at_epoch": 1317,
        "meta_bstar": 0,
        "meta_mean_motion_dot": -5e-07,
        "meta_mean_motion_ddot": 0,
        "tle_line1": "1 58655U 23207B   25337.10746791 -.00000050  00000+0  00000+0 0  9992",
        "tle_line2": "2 58655  55.5782  68.9139 0003459 250.5367 109.4290  1.86231091 13176"
      },
      "geometry": {
        "type": "Point",
        "coordinates": [
          99.71020961072782,
          36.87573486007939
        ]
      }
    },
    {
      "type": "Feature",
      "properties": {
        "norad_id": 59598,
        "name": "GSAT0225 (GALILEO 29)",
        "group": "gnss",
        "lat": -10.981752417969732,
        "lon": 98.64877084105,
        "alt_km": 23229.68648570317,
        "timestamp": "2025-12-06T09:34:17.157962+00:00",
        "meta_object_name": "GSAT0225 (GALILEO 29)",
        "meta_object_id": "2024-079A",
        "meta_epoch": "2025-12-04T01:47:23.955648",
        "meta_mean_motion": 1.70474518,
        "meta_eccentricity": 0.0002,
        "meta_inclination": 54.9978,
        "meta_ra_of_asc_node": 106.5374,
        "meta_arg_of_pericenter": 171.9845,
        "meta_mean_anomaly": 188.0819,
        "meta_ephemeris_type": 0,
        "meta_classification_type": "U",
        "meta_norad_cat_id": 59598,
        "meta_element_set_no": 999,
        "meta_rev_at_epoch": 999,
        "meta_bstar": 0,
        "meta_mean_motion_dot": 1.5e-07,
        "meta_mean_motion_ddot": 0,
        "tle_line1": "1 59598U 24079A   25338.07458282  .00000015  00000+0  00000+0 0  9999",
        "tle_line2": "2 59598  54.9978 106.5374 0002000 171.9845 188.0819  1.70474518  9992"
      },
      "geometry": {
        "type": "Point",
        "coordinates": [
          98.64877084105,
          -10.981752417969732
        ]
      }
    },
    {
      "type": "Feature",
      "properties": {
        "norad_id": 59600,
        "name": "GSAT0227 (GALILEO 30)",
        "group": "gnss",
        "lat": -41.559864380179974,
        "lon": -35.16828424836985,
        "alt_km": 23232.154581316358,
        "timestamp": "2025-12-06T09:34:17.157973+00:00",
        "meta_object_name": "GSAT0227 (GALILEO 30)",
        "meta_object_id": "2024-079C",
        "meta_epoch": "2025-12-03T16:06:35.879040",
        "meta_mean_motion": 1.70474617,
        "meta_eccentricity": 0.00034037,
        "meta_inclination": 54.9912,
        "meta_ra_of_asc_node": 106.5479,
        "meta_arg_of_pericenter": 113.2328,
        "meta_mean_anomaly": 246.7577,
        "meta_ephemeris_type": 0,
        "meta_classification_type": "U",
        "meta_norad_cat_id": 59600,
        "meta_element_set_no": 999,
        "meta_rev_at_epoch": 1003,
        "meta_bstar": 0,
        "meta_mean_motion_dot": 1.8e-07,
        "meta_mean_motion_ddot": 0,
        "tle_line1": "1 59600U 24079C   25337.67124860  .00000018  00000+0  00000+0 0  9993",
        "tle_line2": "2 59600  54.9912 106.5479 0003403 113.2328 246.7577  1.70474617 10033"
      },
      "geometry": {
        "type": "Point",
        "coordinates": [
          -35.16828424836985,
          -41.559864380179974
        ]
      }
    }
  ]
}